start=new Date('2023-03-03T00:00:00.000Z').valueOf();
sats=[{"MEAN_MOTION":"15.06413844","GP_ID":"227359684","DECAY_DATE":null,"OBJECT_ID":"2021-018AY","MEAN_ANOMALY":"260.8490","EPOCH":"2023-03-02T16:50:44.968704","RA_OF_ASC_NODE":"163.1184","COUNTRY_CODE":"US","SEMIMAJOR_AXIS":"6925.306","APOAPSIS":"548.242","PERIOD":"95.591","BSTAR":"0.00149980000000","TLE_LINE1":"1 47833U 21018AY  23061.70190936  .00022137  00000-0  14998-2 0  9992","SITE":"AFETR","OBJECT_TYPE":"PAYLOAD","EPHEMERIS_TYPE":"0","MEAN_MOTION_DOT":"0.00022137","REF_FRAME":"TEME","MEAN_MOTION_DDOT":"0.0000000000000","ECCENTRICITY":"0.00015470","REV_AT_EPOCH":"11040","TIME_SYSTEM":"UTC","RCS_SIZE":"LARGE","INCLINATION":"53.0545","OBJECT_NAME":"STARLINK-2423","LAUNCH_DATE":"2021-03-11","TLE_LINE2":"2 47833  53.0545 163.1184 0001547  99.2674 260.8490 15.06413844110408","PERIAPSIS":"546.100","CENTER_NAME":"EARTH","ARG_OF_PERICENTER":"99.2674","CLASSIFICATION_TYPE":"U","NORAD_CAT_ID":"47833","MEAN_ELEMENT_THEORY":"SGP4","ELEMENT_SET_NO":"999","FILE":"3849487"},{"MEAN_ELEMENT_THEORY":"SGP4","NORAD_CAT_ID":"47834","ELEMENT_SET_NO":"999","FILE":"3849487","RCS_SIZE":"LARGE","TIME_SYSTEM":"UTC","INCLINATION":"53.0521","OBJECT_NAME":"STARLINK-2424","REV_AT_EPOCH":"11040","ECCENTRICITY":"0.00017550","MEAN_MOTION_DDOT":"0.0000000000000","PERIAPSIS":"545.828","LAUNCH_DATE":"2021-03-11","TLE_LINE2":"2 47834  53.0521 163.0736 0001755  50.0581 310.0562 15.06455539110403","CLASSIFICATION_TYPE":"U","ARG_OF_PERICENTER":"50.0581","CENTER_NAME":"EARTH","SITE":"AFETR","TLE_LINE1":"1 47834U 21018AZ  23061.71296996  .00034788  00000-0  23393-2 0  9991","BSTAR":"0.00233930000000","PERIOD":"95.589","OBJECT_TYPE":"PAYLOAD","EPHEMERIS_TYPE":"0","REF_FRAME":"TEME","MEAN_MOTION_DOT":"0.00034788","MEAN_ANOMALY":"310.0562","OBJECT_ID":"2021-018AZ","GP_ID":"227359934","DECAY_DATE":null,"MEAN_MOTION":"15.06455539","APOAPSIS":"548.259","SEMIMAJOR_AXIS":"6925.178","COUNTRY_CODE":"US","RA_OF_ASC_NODE":"163.0736","EPOCH":"2023-03-02T17:06:40.604544"},{"CLASSIFICATION_TYPE":"U","CENTER_NAME":"EARTH","ARG_OF_PERICENTER":"64.9773","ECCENTRICITY":"0.00013480","MEAN_MOTION_DDOT":"0.0000000000000","TIME_SYSTEM":"UTC","RCS_SIZE":"LARGE","INCLINATION":"53.0511","OBJECT_NAME":"STARLINK-2425","REV_AT_EPOCH":"11026","TLE_LINE2":"2 47835  53.0511 168.3751 0001348  64.9773 295.1356 15.06440218110269","LAUNCH_DATE":"2021-03-11","PERIAPSIS":"546.157","FILE":"3849487","NORAD_CAT_ID":"47835","MEAN_ELEMENT_THEORY":"SGP4","ELEMENT_SET_NO":"999","GP_ID":"227360192","DECAY_DATE":null,"MEAN_MOTION":"15.06440218","MEAN_ANOMALY":"295.1356","OBJECT_ID":"2021-018BA","RA_OF_ASC_NODE":"168.3751","EPOCH":"2023-03-02T16:10:18.128352","APOAPSIS":"548.024","SEMIMAJOR_AXIS":"6925.225","COUNTRY_CODE":"US","EPHEMERIS_TYPE":"0","MEAN_MOTION_DOT":"0.00034518","REF_FRAME":"TEME","SITE":"AFETR","TLE_LINE1":"1 47835U 21018BA  23061.67382093  .00034518  00000-0  23224-2 0  9995","PERIOD":"95.590","BSTAR":"0.00232240000000","OBJECT_TYPE":"PAYLOAD"},{"MEAN_MOTION_DOT":"0.00018316","REF_FRAME":"TEME","EPHEMERIS_TYPE":"0","OBJECT_TYPE":"PAYLOAD","PERIOD":"95.592","BSTAR":"0.00124500000000","SITE":"AFETR","TLE_LINE1":"1 47836U 21018BB  23061.66510666  .00018316  00000-0  12450-2 0  9991","EPOCH":"2023-03-02T15:57:45.215424","RA_OF_ASC_NODE":"163.3783","COUNTRY_CODE":"US","SEMIMAJOR_AXIS":"6925.319","APOAPSIS":"548.232","MEAN_MOTION":"15.06409741","GP_ID":"227360936","DECAY_DATE":null,"OBJECT_ID":"2021-018BB","MEAN_ANOMALY":"272.2211","FILE":"3849487","ELEMENT_SET_NO":"999","NORAD_CAT_ID":"47836","MEAN_ELEMENT_THEORY":"SGP4","ARG_OF_PERICENTER":"87.8951","CENTER_NAME":"EARTH","CLASSIFICATION_TYPE":"U","TLE_LINE2":"2 47836  53.0523 163.3783 0001513  87.8951 272.2211 15.06409741110340","LAUNCH_DATE":"2021-03-11","PERIAPSIS":"546.136","MEAN_MOTION_DDOT":"0.0000000000000","ECCENTRICITY":"0.00015130","REV_AT_EPOCH":"11034","INCLINATION":"53.0523","RCS_SIZE":"LARGE","TIME_SYSTEM":"UTC","OBJECT_NAME":"STARLINK-2426"},{"OBJECT_TYPE":"PAYLOAD","PERIOD":"95.590","BSTAR":"0.00228420000000","TLE_LINE1":"1 47837U 21018BC  23061.60792967  .00033933  00000-0  22842-2 0  9990","SITE":"AFETR","MEAN_MOTION_DOT":"0.00033933","REF_FRAME":"TEME","EPHEMERIS_TYPE":"0","EPOCH":"2023-03-02T14:35:25.123488","RA_OF_ASC_NODE":"143.5458","SEMIMAJOR_AXIS":"6925.258","COUNTRY_CODE":"US","APOAPSIS":"548.140","MEAN_MOTION":"15.06429613","DECAY_DATE":null,"GP_ID":"227359191","OBJECT_ID":"2021-018BC","MEAN_ANOMALY":"276.9702","ELEMENT_SET_NO":"999","NORAD_CAT_ID":"47837","MEAN_ELEMENT_THEORY":"SGP4","FILE":"3849487","TLE_LINE2":"2 47837  53.0525 143.5458 0001469  83.1454 276.9702 15.06429613110626","LAUNCH_DATE":"2021-03-11","PERIAPSIS":"546.105","MEAN_MOTION_DDOT":"0.0000000000000","ECCENTRICITY":"0.00014690","REV_AT_EPOCH":"11062","INCLINATION":"53.0525","RCS_SIZE":"LARGE","OBJECT_NAME":"STARLINK-2427","TIME_SYSTEM":"UTC","CENTER_NAME":"EARTH","ARG_OF_PERICENTER":"83.1454","CLASSIFICATION_TYPE":"U"},{"EPOCH":"2023-03-02T18:05:03.447168","RA_OF_ASC_NODE":"162.8921","SEMIMAJOR_AXIS":"6925.195","COUNTRY_CODE":"US","APOAPSIS":"547.954","MEAN_MOTION":"15.06450165","DECAY_DATE":null,"GP_ID":"227359441","OBJECT_ID":"2021-018BD","MEAN_ANOMALY":"288.7907","OBJECT_TYPE":"PAYLOAD","PERIOD":"95.589","BSTAR":"0.00260070000000","TLE_LINE1":"1 47838U 21018BD  23061.75351212  .00038722  00000-0  26007-2 0  9999","SITE":"AFETR","MEAN_MOTION_DOT":"0.00038722","REF_FRAME":"TEME","EPHEMERIS_TYPE":"0","TLE_LINE2":"2 47838  53.0514 162.8921 0001291  71.3222 288.7907 15.06450165110353","LAUNCH_DATE":"2021-03-11","PERIAPSIS":"546.166","MEAN_MOTION_DDOT":"0.0000000000000","ECCENTRICITY":"0.00012910","REV_AT_EPOCH":"11035","RCS_SIZE":"MEDIUM","OBJECT_NAME":"STARLINK-2429","INCLINATION":"53.0514","TIME_SYSTEM":"UTC","ARG_OF_PERICENTER":"71.3222","CENTER_NAME":"EARTH","CLASSIFICATION_TYPE":"U","ELEMENT_SET_NO":"999","NORAD_CAT_ID":"47838","MEAN_ELEMENT_THEORY":"SGP4","FILE":"3849487"},{"ELEMENT_SET_NO":"999","NORAD_CAT_ID":"47839","MEAN_ELEMENT_THEORY":"SGP4","FILE":"3849487","LAUNCH_DATE":"2021-03-11","TLE_LINE2":"2 47839  53.0542 133.9557 0001860  62.4009 297.7169 15.06412878110758","PERIAPSIS":"545.886","ECCENTRICITY":"0.00018600","MEAN_MOTION_DDOT":"0.0000000000000","RCS_SIZE":"LARGE","INCLINATION":"53.0542","OBJECT_NAME":"STARLINK-2431","TIME_SYSTEM":"UTC","REV_AT_EPOCH":"11075","CLASSIFICATION_TYPE":"U","CENTER_NAME":"EARTH","ARG_OF_PERICENTER":"62.4009","OBJECT_TYPE":"PAYLOAD","TLE_LINE1":"1 47839U 21018BE  23061.51670897  .00031418  00000-0  21180-2 0  9999","SITE":"AFETR","BSTAR":"0.00211800000000","PERIOD":"95.591","MEAN_MOTION_DOT":"0.00031418","REF_FRAME":"TEME","EPHEMERIS_TYPE":"0","RA_OF_ASC_NODE":"133.9557","EPOCH":"2023-03-02T12:24:03.655008","APOAPSIS":"548.462","SEMIMAJOR_AXIS":"6925.309","COUNTRY_CODE":"US","DECAY_DATE":null,"GP_ID":"227360686","MEAN_MOTION":"15.06412878","MEAN_ANOMALY":"297.7169","OBJECT_ID":"2021-018BE"},{"MEAN_MOTION_DOT":"0.00046481","REF_FRAME":"TEME","EPHEMERIS_TYPE":"0","OBJECT_TYPE":"PAYLOAD","SITE":"AFETR","TLE_LINE1":"1 47840U 21018BF  23061.59318332  .00046481  00000-0  31146-2 0  9991","BSTAR":"0.00311460000000","PERIOD":"95.589","RA_OF_ASC_NODE":"143.6127","EPOCH":"2023-03-02T14:14:11.038848","APOAPSIS":"548.308","COUNTRY_CODE":"US","SEMIMAJOR_AXIS":"6925.195","GP_ID":"227360443","DECAY_DATE":null,"MEAN_MOTION":"15.06450208","MEAN_ANOMALY":"225.3798","OBJECT_ID":"2021-018BF","FILE":"3849487","ELEMENT_SET_NO":"999","NORAD_CAT_ID":"47840","MEAN_ELEMENT_THEORY":"SGP4","CLASSIFICATION_TYPE":"U","CENTER_NAME":"EARTH","ARG_OF_PERICENTER":"134.7338","TLE_LINE2":"2 47840  53.0528 143.6127 0001803 134.7338 225.3798 15.06450208110619","LAUNCH_DATE":"2021-03-11","PERIAPSIS":"545.811","ECCENTRICITY":"0.00018030","MEAN_MOTION_DDOT":"0.0000000000000","RCS_SIZE":"LARGE","INCLINATION":"53.0528","OBJECT_NAME":"STARLINK-2432","TIME_SYSTEM":"UTC","REV_AT_EPOCH":"11061"},{"PERIOD":"95.590","BSTAR":"0.00184320000000","TLE_LINE1":"1 47841U 21018BG  23061.65583442  .00027309  00000-0  18432-2 0  9996","SITE":"AFETR","OBJECT_TYPE":"PAYLOAD","EPHEMERIS_TYPE":"0","REF_FRAME":"TEME","MEAN_MOTION_DOT":"0.00027309","OBJECT_ID":"2021-018BG","MEAN_ANOMALY":"304.8939","MEAN_MOTION":"15.06439599","DECAY_DATE":null,"GP_ID":"227359685","COUNTRY_CODE":"US","SEMIMAJOR_AXIS":"6925.227","APOAPSIS":"548.245","EPOCH":"2023-03-02T15:44:24.093888","RA_OF_ASC_NODE":"143.3285","MEAN_ELEMENT_THEORY":"SGP4","NORAD_CAT_ID":"47841","ELEMENT_SET_NO":"999","FILE":"3849487","REV_AT_EPOCH":"11062","RCS_SIZE":"LARGE","OBJECT_NAME":"STARLINK-2433","INCLINATION":"53.0541","TIME_SYSTEM":"UTC","MEAN_MOTION_DDOT":"0.0000000000000","ECCENTRICITY":"0.00016650","PERIAPSIS":"545.939","TLE_LINE2":"2 47841  53.0541 143.3285 0001665  55.2206 304.8939 15.06439599110625","LAUNCH_DATE":"2021-03-11","ARG_OF_PERICENTER":"55.2206","CENTER_NAME":"EARTH","CLASSIFICATION_TYPE":"U"},{"CLASSIFICATION_TYPE":"U","ARG_OF_PERICENTER":"77.2704","CENTER_NAME":"EARTH","INCLINATION":"53.0516","RCS_SIZE":"LARGE","TIME_SYSTEM":"UTC","OBJECT_NAME":"STARLINK-2434","REV_AT_EPOCH":"11026","ECCENTRICITY":"0.00015960","MEAN_MOTION_DDOT":"0.0000000000000","PERIAPSIS":"545.943","LAUNCH_DATE":"2021-03-11","TLE_LINE2":"2 47842  53.0516 173.0946 0001596  77.2704 282.8464 15.06454003110267","FILE":"3849487","MEAN_ELEMENT_THEORY":"SGP4","NORAD_CAT_ID":"47842","ELEMENT_SET_NO":"999","MEAN_ANOMALY":"282.8464","OBJECT_ID":"2021-018BH","GP_ID":"227359935","DECAY_DATE":null,"MEAN_MOTION":"15.06454003","APOAPSIS":"548.153","SEMIMAJOR_AXIS":"6925.183","COUNTRY_CODE":"US","RA_OF_ASC_NODE":"173.0946","EPOCH":"2023-03-02T17:00:02.819808","EPHEMERIS_TYPE":"0","REF_FRAME":"TEME","MEAN_MOTION_DOT":"0.00046817","TLE_LINE1":"1 47842U 21018BH  23061.70836597  .00046817  00000-0  31365-2 0  9990","SITE":"AFETR","PERIOD":"95.589","BSTAR":"0.00313650000000","OBJECT_TYPE":"PAYLOAD"}];
